SL-14 R/B               
1 16792U 86046B   26036.13984110  .00000607  00000+0  67162-4 0  9991
2 16792  82.4820 110.9406 0022489 339.2416  20.7884 14.85558418121579
SL-14 R/B               
1 16882U 86055B   26035.87907227  .00000709  00000+0  78825-4 0  9996
2 16882  82.5231 157.5026 0020396  81.6196  43.7109 14.85606764114495
AJISAI (EGS)            
1 16908U 86061A   26036.18658610 -.00000101  00000+0 -28738-4 0  9992
2 16908  50.0067 193.2944 0011241 203.3362 205.4039 12.44515349463952
COSMOS 1812             
1 17295U 87003A   26036.16169632  .00301065  32971-4  86723-3 0  9993
2 17295  82.4772 232.4425 0000922 333.5881  26.5346 15.93022379139260
SL-14 R/B               
1 17567U 87024B   26036.18511154  .00000634  00000+0  69428-4 0  9995
2 17567  82.5295 123.3123 0018502  13.2673 346.9026 14.86100258 83301
COSMOS 1833             
1 17589U 87027A   26035.73078245  .00000090  00000+0  73694-4 0  9997
2 17589  70.9208  35.2868 0024841 258.5305 101.3026 14.13055513  5665
SL-16 R/B               
1 17590U 87027B   26036.15281271 -.00000046  00000+0  10887-5 0  9999
2 17590  71.0049 345.0559 0005292 198.0893 162.0044 14.17163839 10733
SL-14 R/B               
1 17912U 87038B   26035.89385806  .00000716  00000+0  80340-4 0  9991
2 17912  82.5043 327.6943 0017684 273.7130  86.2064 14.85335581 74366
COSMOS 1844             
1 17973U 87041A   26036.15437653  .00000305  00000+0  18351-3 0  9996
2 17973  70.8980 102.8045 0028768  70.2454 290.1766 14.14537647998980
SL-14 R/B               
1 18153U 87055B   26035.94384094  .00000677  00000+0  75155-4 0  9996
2 18153  82.4990  19.8899 0022068 119.6243 240.7175 14.85588179 65070
COSMOS 1867             
1 18187U 87060A   26036.02544712 -.00000028  00000+0  27219-4 0  9993
2 18187  65.0106  38.1783 0014074 276.1781  83.7700 14.31497594 15269
SL-14 R/B               
1 18749U 88001B   26035.93690648  .00000605  00000+0  67143-4 0  9992
2 18749  82.5105 226.1676 0017819 351.5834   8.5081 14.85488467 37161
