CCSDS_OMM_VERS = 2.0
CREATION_DATE  = 
ORIGINATOR     = 

OBJECT_NAME    = SL-14 R/B
OBJECT_ID      = 1986-046B
CENTER_NAME    = EARTH
REF_FRAME      = TEME
TIME_SYSTEM    = UTC
MEAN_ELEMENT_THEORY = SGP/SGP4

EPOCH          = 2026-02-05T03:21:22.271040
MEAN_MOTION    = 14.85558418
ECCENTRICITY   = .0022489
INCLINATION    = 82.4820
RA_OF_ASC_NODE = 110.9406
ARG_OF_PERICENTER = 339.2416
MEAN_ANOMALY   = 20.7884

EPHEMERIS_TYPE = 0
CLASSIFICATION_TYPE = U
NORAD_CAT_ID   = 16792
ELEMENT_SET_NO = 999
REV_AT_EPOCH   = 12157
BSTAR          = .67162E-4
MEAN_MOTION_DOT = .607E-5
MEAN_MOTION_DDOT = 0

CCSDS_OMM_VERS = 2.0
CREATION_DATE  = 
ORIGINATOR     = 

OBJECT_NAME    = SL-14 R/B
OBJECT_ID      = 1986-055B
CENTER_NAME    = EARTH
REF_FRAME      = TEME
TIME_SYSTEM    = UTC
MEAN_ELEMENT_THEORY = SGP/SGP4

EPOCH          = 2026-02-04T21:05:51.844128
MEAN_MOTION    = 14.85606764
ECCENTRICITY   = .0020396
INCLINATION    = 82.5231
RA_OF_ASC_NODE = 157.5026
ARG_OF_PERICENTER = 81.6196
MEAN_ANOMALY   = 43.7109

EPHEMERIS_TYPE = 0
CLASSIFICATION_TYPE = U
NORAD_CAT_ID   = 16882
ELEMENT_SET_NO = 999
REV_AT_EPOCH   = 11449
BSTAR          = .78825E-4
MEAN_MOTION_DOT = .709E-5
MEAN_MOTION_DDOT = 0

CCSDS_OMM_VERS = 2.0
CREATION_DATE  = 
ORIGINATOR     = 

OBJECT_NAME    = AJISAI (EGS)
OBJECT_ID      = 1986-061A
CENTER_NAME    = EARTH
REF_FRAME      = TEME
TIME_SYSTEM    = UTC
MEAN_ELEMENT_THEORY = SGP/SGP4

EPOCH          = 2026-02-05T04:28:41.039040
MEAN_MOTION    = 12.44515349
ECCENTRICITY   = .0011241
INCLINATION    = 50.0067
RA_OF_ASC_NODE = 193.2944
ARG_OF_PERICENTER = 203.3362
MEAN_ANOMALY   = 205.4039

EPHEMERIS_TYPE = 0
CLASSIFICATION_TYPE = U
NORAD_CAT_ID   = 16908
ELEMENT_SET_NO = 999
REV_AT_EPOCH   = 46395
BSTAR          = -.28738E-4
MEAN_MOTION_DOT = -.101E-5
MEAN_MOTION_DDOT = 0

CCSDS_OMM_VERS = 2.0
CREATION_DATE  = 
ORIGINATOR     = 

OBJECT_NAME    = COSMOS 1812
OBJECT_ID      = 1987-003A
CENTER_NAME    = EARTH
REF_FRAME      = TEME
TIME_SYSTEM    = UTC
MEAN_ELEMENT_THEORY = SGP/SGP4

EPOCH          = 2026-02-05T03:52:50.562048
MEAN_MOTION    = 15.93022379
ECCENTRICITY   = .0000922
INCLINATION    = 82.4772
RA_OF_ASC_NODE = 232.4425
ARG_OF_PERICENTER = 333.5881
MEAN_ANOMALY   = 26.5346

EPHEMERIS_TYPE = 0
CLASSIFICATION_TYPE = U
NORAD_CAT_ID   = 17295
ELEMENT_SET_NO = 999
REV_AT_EPOCH   = 13926
BSTAR          = .86723E-3
MEAN_MOTION_DOT = .301065E-2
MEAN_MOTION_DDOT = .32971E-4

CCSDS_OMM_VERS = 2.0
CREATION_DATE  = 
ORIGINATOR     = 

OBJECT_NAME    = SL-14 R/B
OBJECT_ID      = 1987-024B
CENTER_NAME    = EARTH
REF_FRAME      = TEME
TIME_SYSTEM    = UTC
MEAN_ELEMENT_THEORY = SGP/SGP4

EPOCH          = 2026-02-05T04:26:33.637056
MEAN_MOTION    = 14.86100258
ECCENTRICITY   = .0018502
INCLINATION    = 82.5295
RA_OF_ASC_NODE = 123.3123
ARG_OF_PERICENTER = 13.2673
MEAN_ANOMALY   = 346.9026

EPHEMERIS_TYPE = 0
CLASSIFICATION_TYPE = U
NORAD_CAT_ID   = 17567
ELEMENT_SET_NO = 999
REV_AT_EPOCH   = 8330
BSTAR          = .69428E-4
MEAN_MOTION_DOT = .634E-5
MEAN_MOTION_DDOT = 0

CCSDS_OMM_VERS = 2.0
CREATION_DATE  = 
ORIGINATOR     = 

OBJECT_NAME    = COSMOS 1833
OBJECT_ID      = 1987-027A
CENTER_NAME    = EARTH
REF_FRAME      = TEME
TIME_SYSTEM    = UTC
MEAN_ELEMENT_THEORY = SGP/SGP4

EPOCH          = 2026-02-04T17:32:19.603680
MEAN_MOTION    = 14.13055513
ECCENTRICITY   = .0024841
INCLINATION    = 70.9208
RA_OF_ASC_NODE = 35.2868
ARG_OF_PERICENTER = 258.5305
MEAN_ANOMALY   = 101.3026

EPHEMERIS_TYPE = 0
CLASSIFICATION_TYPE = U
NORAD_CAT_ID   = 17589
ELEMENT_SET_NO = 999
REV_AT_EPOCH   = 566
BSTAR          = .73694E-4
MEAN_MOTION_DOT = .9E-6
MEAN_MOTION_DDOT = 0

CCSDS_OMM_VERS = 2.0
CREATION_DATE  = 
ORIGINATOR     = 

OBJECT_NAME    = SL-16 R/B
OBJECT_ID      = 1987-027B
CENTER_NAME    = EARTH
REF_FRAME      = TEME
TIME_SYSTEM    = UTC
MEAN_ELEMENT_THEORY = SGP/SGP4

EPOCH          = 2026-02-05T03:40:03.018144
MEAN_MOTION    = 14.17163839
ECCENTRICITY   = .0005292
INCLINATION    = 71.0049
RA_OF_ASC_NODE = 345.0559
ARG_OF_PERICENTER = 198.0893
MEAN_ANOMALY   = 162.0044

EPHEMERIS_TYPE = 0
CLASSIFICATION_TYPE = U
NORAD_CAT_ID   = 17590
ELEMENT_SET_NO = 999
REV_AT_EPOCH   = 1073
BSTAR          = .10887E-5
MEAN_MOTION_DOT = -.46E-6
MEAN_MOTION_DDOT = 0

CCSDS_OMM_VERS = 2.0
CREATION_DATE  = 
ORIGINATOR     = 

OBJECT_NAME    = SL-14 R/B
OBJECT_ID      = 1987-038B
CENTER_NAME    = EARTH
REF_FRAME      = TEME
TIME_SYSTEM    = UTC
MEAN_ELEMENT_THEORY = SGP/SGP4

EPOCH          = 2026-02-04T21:27:09.336384
MEAN_MOTION    = 14.85335581
ECCENTRICITY   = .0017684
INCLINATION    = 82.5043
RA_OF_ASC_NODE = 327.6943
ARG_OF_PERICENTER = 273.7130
MEAN_ANOMALY   = 86.2064

EPHEMERIS_TYPE = 0
CLASSIFICATION_TYPE = U
NORAD_CAT_ID   = 17912
ELEMENT_SET_NO = 999
REV_AT_EPOCH   = 7436
BSTAR          = .8034E-4
MEAN_MOTION_DOT = .716E-5
MEAN_MOTION_DDOT = 0

CCSDS_OMM_VERS = 2.0
CREATION_DATE  = 
ORIGINATOR     = 

OBJECT_NAME    = COSMOS 1844
OBJECT_ID      = 1987-041A
CENTER_NAME    = EARTH
REF_FRAME      = TEME
TIME_SYSTEM    = UTC
MEAN_ELEMENT_THEORY = SGP/SGP4

EPOCH          = 2026-02-05T03:42:18.132192
MEAN_MOTION    = 14.14537647
ECCENTRICITY   = .0028768
INCLINATION    = 70.8980
RA_OF_ASC_NODE = 102.8045
ARG_OF_PERICENTER = 70.2454
MEAN_ANOMALY   = 290.1766

EPHEMERIS_TYPE = 0
CLASSIFICATION_TYPE = U
NORAD_CAT_ID   = 17973
ELEMENT_SET_NO = 999
REV_AT_EPOCH   = 99898
BSTAR          = .18351E-3
MEAN_MOTION_DOT = .305E-5
MEAN_MOTION_DDOT = 0

CCSDS_OMM_VERS = 2.0
CREATION_DATE  = 
ORIGINATOR     = 

OBJECT_NAME    = SL-14 R/B
OBJECT_ID      = 1987-055B
CENTER_NAME    = EARTH
REF_FRAME      = TEME
TIME_SYSTEM    = UTC
MEAN_ELEMENT_THEORY = SGP/SGP4

EPOCH          = 2026-02-04T22:39:07.857216
MEAN_MOTION    = 14.85588179
ECCENTRICITY   = .0022068
INCLINATION    = 82.4990
RA_OF_ASC_NODE = 19.8899
ARG_OF_PERICENTER = 119.6243
MEAN_ANOMALY   = 240.7175

EPHEMERIS_TYPE = 0
CLASSIFICATION_TYPE = U
NORAD_CAT_ID   = 18153
ELEMENT_SET_NO = 999
REV_AT_EPOCH   = 6507
BSTAR          = .75155E-4
MEAN_MOTION_DOT = .677E-5
MEAN_MOTION_DDOT = 0

CCSDS_OMM_VERS = 2.0
CREATION_DATE  = 
ORIGINATOR     = 

OBJECT_NAME    = COSMOS 1867
OBJECT_ID      = 1987-060A
CENTER_NAME    = EARTH
REF_FRAME      = TEME
TIME_SYSTEM    = UTC
MEAN_ELEMENT_THEORY = SGP/SGP4

EPOCH          = 2026-02-05T00:36:38.631168
MEAN_MOTION    = 14.31497594
ECCENTRICITY   = .0014074
INCLINATION    = 65.0106
RA_OF_ASC_NODE = 38.1783
ARG_OF_PERICENTER = 276.1781
MEAN_ANOMALY   = 83.7700

EPHEMERIS_TYPE = 0
CLASSIFICATION_TYPE = U
NORAD_CAT_ID   = 18187
ELEMENT_SET_NO = 999
REV_AT_EPOCH   = 1526
BSTAR          = .27219E-4
MEAN_MOTION_DOT = -.28E-6
MEAN_MOTION_DDOT = 0

CCSDS_OMM_VERS = 2.0
CREATION_DATE  = 
ORIGINATOR     = 

OBJECT_NAME    = SL-14 R/B
OBJECT_ID      = 1988-001B
CENTER_NAME    = EARTH
REF_FRAME      = TEME
TIME_SYSTEM    = UTC
MEAN_ELEMENT_THEORY = SGP/SGP4

EPOCH          = 2026-02-04T22:29:08.719872
MEAN_MOTION    = 14.85488467
ECCENTRICITY   = .0017819
INCLINATION    = 82.5105
RA_OF_ASC_NODE = 226.1676
ARG_OF_PERICENTER = 351.5834
MEAN_ANOMALY   = 8.5081

EPHEMERIS_TYPE = 0
CLASSIFICATION_TYPE = U
NORAD_CAT_ID   = 18749
ELEMENT_SET_NO = 999
REV_AT_EPOCH   = 3716
BSTAR          = .67143E-4
MEAN_MOTION_DOT = .605E-5
MEAN_MOTION_DDOT = 0

